GEOSCAN-3 (RS92S3)
1 64893U 25155T   26185.85122325  .00031666  00000-0  90120-3 0  9995
2 64893  97.4549 155.9415 0008436 113.7921 246.4208 15.36031122 83567
INNOSAT3 (RS92S0)
1 64894U 25155U   26185.87077980  .00066701  00000-0  13958-2 0  9995
2 64894  97.4494 157.8062 0008216 113.1663 247.0452 15.45191646 83699
KNACKSAT-2
1 67683U 98067XZ  26185.76648836  .00084457  00000-0  95858-3 0  9996
2 67683  51.6262 205.9511 0008311 290.9870  69.0234 15.61584760 23029
