OBJECT_NAME,OBJECT_ID,EPOCH,MEAN_MOTION,ECCENTRICITY,INCLINATION,RA_OF_ASC_NODE,ARG_OF_PERICENTER,MEAN_ANOMALY,EPHEMERIS_TYPE,CLASSIFICATION_TYPE,NORAD_CAT_ID,ELEMENT_SET_NO,REV_AT_EPOCH,BSTAR,MEAN_MOTION_DOT,MEAN_MOTION_DDOT
GEOSCAN 3 (RS92S3),2025-155T,2026-07-04T20:25:45.688800,15.36031122,.00084355,97.4549,155.9415,113.7921,246.4208,0,U,64893,999,8356,.90119527E-3,.31666E-3,0
INNOSAT 3 (RS92S0),2025-155U,2026-07-04T20:53:55.374720,15.45191646,.0008216,97.4494,157.8062,113.1663,247.0452,0,U,64894,999,8369,.13958423E-2,.66701E-3,0
KNACKSAT-2,1998-067XZ,2026-07-04T18:23:44.594304,15.61584760,.00083107,51.6262,205.9511,290.9870,69.0234,0,U,67683,999,2302,.95858254E-3,.84457E-3,0
